[{"OBJECT_NAME":"STARLINK-36931","OBJECT_ID":"2026-039Q","EPOCH":"2026-03-09T22:00:01.999584","MEAN_MOTION":15.84617838,"ECCENTRICITY":0.00017583,"INCLINATION":42.9982,"RA_OF_ASC_NODE":53.4029,"ARG_OF_PERICENTER":258.082,"MEAN_ANOMALY":57.7921,"EPHEMERIS_TYPE":0,"CLASSIFICATION_TYPE":"U","NORAD_CAT_ID":68000,"ELEMENT_SET_NO":999,"REV_AT_EPOCH":291,"BSTAR":-0.0074774254,"MEAN_MOTION_DOT":-0.01565241,"MEAN_MOTION_DDOT":0},{"OBJECT_NAME":"CZ-2F DEB","OBJECT_ID":"2026-024G","EPOCH":"2026-03-09T22:26:56.614272","MEAN_MOTION":15.01116214,"ECCENTRICITY":0.03207922,"INCLINATION":49.8328,"RA_OF_ASC_NODE":21.451,"ARG_OF_PERICENTER":268.4479,"MEAN_ANOMALY":87.9702,"EPHEMERIS_TYPE":0,"CLASSIFICATION_TYPE":"U","NORAD_CAT_ID":67720,"ELEMENT_SET_NO":999,"REV_AT_EPOCH":459,"BSTAR":0.0038278463,"MEAN_MOTION_DOT":0.00157764,"MEAN_MOTION_DDOT":0}]
